OBJECT_NAME,OBJECT_ID,EPOCH,MEAN_MOTION,ECCENTRICITY,INCLINATION,RA_OF_ASC_NODE,ARG_OF_PERICENTER,MEAN_ANOMALY,EPHEMERIS_TYPE,CLASSIFICATION_TYPE,NORAD_CAT_ID,ELEMENT_SET_NO,REV_AT_EPOCH,BSTAR,MEAN_MOTION_DOT,MEAN_MOTION_DDOT
STARLINK-5422,2022-175AY,2025-05-24T14:23:35.363904,15.08840035,.0000998,53.2167,246.4123,89.0744,271.0362,0,U,54804,999,13649,.66925E-4,.778E-5,0
STARLINK-5417,2022-175AZ,2025-05-24T13:14:43.714176,15.08847109,.0001246,53.2166,246.8186,80.7135,279.3998,0,U,54805,999,13648,.13393E-4,-.75E-6,0
STARLINK-5412,2022-175BA,2025-05-24T16:09:35.608320,15.08841627,.0001319,53.2168,246.1561,88.3403,271.7741,0,U,54806,999,13650,.11381E-3,.1524E-4,0
STARLINK-5410,2022-175BB,2025-05-25T00:11:49.204896,15.08841043,.0000984,53.2168,244.6920,83.7294,276.3810,0,U,54807,999,13439,.66319E-4,.768E-5,0
STARLINK-5413,2022-175BC,2025-05-24T15:37:13.920384,15.08849707,.0001161,53.2167,231.8376,85.3440,274.7685,0,U,54808,999,13670,.14981E-4,-.49E-6,0
STARLINK-5414,2022-175BD,2025-05-24T14:28:53.457600,15.08841340,.0001243,53.2175,246.4300,91.7621,268.3514,0,U,54809,999,13649,.60717E-4,.679E-5,0
STARLINK-5408,2022-175BE,2025-05-24T13:23:21.318432,15.08837664,.0001222,53.2174,241.8507,99.1250,260.9881,0,U,54810,999,13655,.50283E-4,.512E-5,0
STARLINK-5424,2022-175BF,2025-05-24T23:34:12.940608,15.08872367,.00009,53.2148,240.2212,86.9905,273.1190,0,U,54811,999,13445,.88631E-3,.13858E-3,0
STARLINK-5382,2022-177A,2025-05-24T17:17:21.653664,15.02540893,.0001504,43.0037,263.7835,272.5929,87.4741,0,U,54820,999,13348,.84105E-4,.933E-5,0
STARLINK-5385,2022-177B,2025-05-24T16:59:47.185728,15.02539182,.0001086,43.0032,263.6972,272.4564,87.6154,0,U,54821,999,13348,.73576E-4,.791E-5,0
STARLINK-5101,2022-177C,2025-05-24T15:17:39.951744,15.02533701,.0001289,43.0025,264.0221,265.8351,94.2344,0,U,54822,999,13347,.36702E-4,.292E-5,0
STARLINK-5106,2022-177D,2025-05-24T17:12:32.840928,15.02536236,.000174,43.0042,263.7624,288.2288,71.8364,0,U,54823,999,13348,-.12112E-4,-.367E-5,0
STARLINK-4643,2022-177E,2025-05-24T15:32:03.667488,15.02532190,.0001295,43.0039,264.0944,264.2766,95.7929,0,U,54824,999,13347,.28699E-3,.3675E-4,0
STARLINK-4801,2022-177F,2025-05-24T16:55:00.892416,15.10980750,.001075,42.9999,260.2792,354.0770,5.9947,0,U,54825,999,13352,.15185E-2,.25694E-3,0
STARLINK-5107,2022-177G,2025-05-24T18:30:43.515936,15.02532137,.0001502,43.0040,263.3064,271.9968,88.0702,0,U,54826,999,13349,.28626E-4,.183E-5,0
STARLINK-5383,2022-177H,2025-05-24T19:55:16.671648,15.02528913,.0001601,43.0027,262.8910,273.5809,86.4850,0,U,54827,999,13351,.6756E-5,-.112E-5,0
STARLINK-5381,2022-177J,2025-05-25T00:37:39.360000,15.02530431,.0000999,43.0027,261.7808,277.8012,82.2717,0,U,54828,999,13255,.97093E-4,.1108E-4,0
STARLINK-5394,2022-177L,2025-05-25T00:29:39.257664,15.02537002,.0001192,43.0030,261.7335,272.5401,87.5305,0,U,54830,999,13255,.59558E-4,.601E-5,0
STARLINK-5395,2022-177M,2025-05-25T00:47:15.304128,15.02501586,.0000967,43.0031,261.8310,270.9054,89.1678,0,U,54831,999,13255,.5378E-3,.7062E-4,0
STARLINK-5393,2022-177N,2025-05-24T19:07:51.441888,15.02533051,.0001522,43.0033,250.5035,271.9758,88.0910,0,U,54832,999,13364,.64145E-4,.663E-5,0
STARLINK-5391,2022-177P,2025-05-24T15:04:52.391424,15.02538355,.0001197,43.0029,263.9523,270.3111,89.7595,0,U,54833,999,13347,.97135E-4,.1109E-4,0
STARLINK-5386,2022-177Q,2025-05-24T14:53:42.491616,15.02542798,.0001736,43.0041,263.8993,275.2831,84.7813,0,U,54834,999,13348,.2151E-3,.2704E-4,0
STARLINK-5389,2022-177R,2025-05-25T00:34:27.177024,15.02535492,.0001247,43.0033,261.7618,270.6029,89.4670,0,U,54835,999,13255,.3428E-4,.259E-5,0
STARLINK-5384,2022-177S,2025-05-25T00:23:15.751392,15.02536489,.0001915,43.0030,261.7011,264.0500,96.0124,0,U,54836,999,13255,-.72535E-4,-.1183E-4,0
STARLINK-5369,2022-177T,2025-05-24T16:26:13.295904,15.02533681,.0001194,43.0030,263.5170,268.6047,91.4659,0,U,54837,999,13348,.79947E-4,.876E-5,0
STARLINK-5372,2022-177U,2025-05-25T00:13:41.314944,15.02530092,.0000362,42.9982,261.6543,10.2940,349.7910,0,U,54838,999,13255,-.67819E-4,-.1119E-4,0
STARLINK-5368,2022-177W,2025-05-24T19:13:42.666528,15.02537121,.0001192,43.0038,262.6717,271.9170,88.1535,0,U,54840,999,13252,-.94312E-5,-.331E-5,0
STARLINK-4659,2022-177X,2025-05-25T00:18:28.303776,15.02534990,.0001303,43.0035,261.6792,266.9144,93.1549,0,U,54841,999,13255,.3136E-4,.22E-5,0
STARLINK-5387,2022-177Y,2025-05-24T14:16:56.093952,15.02530779,.0001168,43.0026,263.7011,270.7220,89.3488,0,U,54842,999,13347,-.1523E-4,-.409E-5,0
STARLINK-5304,2022-177Z,2025-05-25T00:08:52.727712,15.02534497,.0001195,43.0038,261.6287,274.3895,85.6811,0,U,54843,999,13255,.12647E-4,-.33E-6,0
STARLINK-5388,2022-177AA,2025-05-24T17:21:59.462496,15.02533409,.000127,43.0060,262.9299,275.8990,84.1708,0,U,54844,999,13349,.39918E-4,.336E-5,0
STARLINK-5082,2022-177AB,2025-05-24T17:33:11.498112,15.02529259,.0001055,43.0032,263.0073,271.2243,88.8479,0,U,54845,999,13349,-.1767E-5,-.227E-5,0
STARLINK-5360,2022-177AC,2025-05-24T14:12:08.205696,15.02536342,.0001123,43.0041,263.6795,263.1116,96.9599,0,U,54846,999,13347,.58874E-4,.592E-5,0
STARLINK-5061,2022-177AD,2025-05-24T22:49:52.621536,15.02535731,.0001253,43.0036,236.0615,266.8011,93.2687,0,U,54847,999,13284,.39663E-4,.332E-5,0
STARLINK-5432,2022-177AE,2025-05-24T23:47:02.615136,15.02540840,.0001459,43.0043,249.3656,279.2249,80.8428,0,U,54848,999,13269,-.52214E-4,-.909E-5,0
STARLINK-5434,2022-177AF,2025-05-25T00:29:22.112448,15.07242367,.0006062,43.0001,260.0316,349.6941,10.3778,0,U,54849,999,13257,.1083E-2,.16431E-3,0
STARLINK-5087,2022-177AG,2025-05-24T17:17:44.260224,15.02533199,.0001302,43.0029,250.7777,269.2465,90.8228,0,U,54850,999,13363,.50607E-4,.48E-5,0
STARLINK-5084,2022-177AH,2025-05-24T18:58:15.464928,15.02538088,.0001462,43.0020,250.4367,275.9213,84.1463,0,U,54851,999,13266,-.37691E-4,-.713E-5,0
STARLINK-5418,2022-177AJ,2025-05-24T23:31:03.510336,15.02539376,.0000585,43.0006,249.2831,274.1578,85.9197,0,U,54852,999,13269,.47094E-4,.433E-5,0
STARLINK-5427,2022-177AK,2025-05-24T23:35:51.167904,15.02533123,.0001622,43.0032,249.3060,273.7525,86.3132,0,U,54853,999,13269,-.62113E-5,-.288E-5,0
STARLINK-5419,2022-177AL,2025-05-24T22:00:01.999584,15.45328316,.0001662,43.0044,246.0154,279.8273,182.1921,0,U,54854,999,463,.22794E-1,.1228393E-1,0
STARLINK-5416,2022-177AM,2025-05-24T15:27:37.335168,15.02535357,.0001042,43.0025,251.0577,257.6170,102.4556,0,U,54855,999,13362,.25471E-4,.141E-5,0
STARLINK-5086,2022-177AN,2025-05-24T16:34:34.936896,15.02536945,.000158,43.0039,250.5469,274.1586,85.9076,0,U,54856,999,13363,-.13003E-3,-.196E-4,0
STARLINK-5078,2022-177AP,2025-05-24T15:14:50.359776,15.02533702,.0001277,43.0032,250.9970,277.1493,82.9204,0,U,54857,999,13362,.84124E-4,.933E-5,0
STARLINK-5407,2022-177AQ,2025-05-24T16:53:45.396960,15.02551509,.0000094,43.0052,250.6488,238.9510,121.1323,0,U,54858,999,13363,-.12337E-3,-.187E-4,0
STARLINK-5409,2022-177AR,2025-05-24T18:15:06.654816,15.02530635,.000151,43.0035,250.2115,270.9230,89.1439,0,U,54859,999,13364,.30628E-4,.21E-5,0
STARLINK-5406,2022-177AS,2025-05-24T14:55:39.630144,15.02532625,.0001288,43.0024,250.8934,264.9904,95.0792,0,U,54860,999,13362,.40269E-4,.34E-5,0
STARLINK-5400,2022-177AT,2025-05-24T15:19:37.729632,15.02537315,.0001284,43.0034,251.0172,281.6508,78.4190,0,U,54861,999,13362,.81573E-4,.898E-5,0
STARLINK-5403,2022-177AU,2025-05-24T15:53:12.040224,15.02532091,.0001426,43.0037,251.2106,269.0176,91.0503,0,U,54862,999,13362,.45386E-4,.409E-5,0
STARLINK-5405,2022-177AV,2025-05-24T18:19:54.006528,15.02535946,.0001187,43.0034,250.2372,266.4676,93.6030,0,U,54863,999,13364,.27907E-4,.173E-5,0
STARLINK-5359,2022-177AW,2025-05-24T14:50:51.678816,15.02541336,.0001236,43.0033,250.8713,278.1203,81.9499,0,U,54864,999,13362,.3763E-4,.305E-5,0
STARLINK-5411,2022-177AX,2025-05-24T18:24:41.864544,15.02533431,.0001541,43.0031,250.2609,260.8841,99.1827,0,U,54865,999,13364,.10832E-3,.126E-4,0
STARLINK-5398,2022-177AY,2025-05-24T17:47:56.364576,15.02534274,.0001534,43.0027,250.0740,270.3466,89.7201,0,U,54866,999,13364,.52768E-4,.509E-5,0
STARLINK-5396,2022-177AZ,2025-05-25T00:28:25.951584,15.02535902,.0001414,43.0033,248.7201,274.6982,85.3698,0,U,54867,999,13258,.88158E-4,.987E-5,0
STARLINK-5379,2022-177BA,2025-05-25T00:04:29.282016,15.02519590,.0000726,43.0011,248.5877,244.7570,115.3197,0,U,54868,999,13257,.15361E-3,.1871E-4,0
STARLINK-5402,2022-177BB,2025-05-25T00:18:48.919680,15.02551295,.0001679,43.0016,248.6688,279.2309,80.8343,0,U,54869,999,13258,.19148E-3,.2385E-4,0
STARLINK-5401,2022-177BC,2025-05-24T16:09:00.681120,15.02534044,.0001696,43.0047,250.4111,269.0051,91.0597,0,U,54870,999,13363,.24404E-4,.126E-5,0
STARLINK-5397,2022-177BD,2025-05-25T00:20:28.396320,15.02526588,.0000629,43.0013,248.6738,314.8809,45.1982,0,U,54871,999,13258,.31214E-4,.218E-5,0
STARLINK-5390,2022-177BE,2025-05-24T23:56:27.221856,15.02556791,.0002205,43.0041,248.5745,277.5705,82.4887,0,U,54872,999,13258,-.31416E-3,-.4448E-4,0
STARLINK-5091,2022-177BF,2025-05-24T23:59:39.399648,15.02539888,.0001773,43.0039,248.5666,270.7465,89.3174,0,U,54873,999,13270,.12042E-4,-.41E-6,0
STARLINK-5277,2023-010A,2025-05-25T03:38:12.153984,14.98329516,.0002837,70.0008,52.0471,269.1460,90.9374,0,U,55269,999,12925,.32041E-4,.289E-5,0
STARLINK-5306,2023-010C,2025-05-25T03:44:12.751296,14.98331097,.0002812,70.0007,52.0626,268.4072,91.6765,0,U,55271,999,12925,.55496E-4,.569E-5,0
STARLINK-5310,2023-010D,2025-05-25T00:07:53.968800,14.98332155,.0002053,70.0009,52.3446,267.9454,92.1470,0,U,55272,999,12923,.40365E-4,.389E-5,0
STARLINK-5291,2023-010E,2025-05-24T18:43:25.990752,14.98329436,.0002588,70.0009,52.7629,268.5723,91.5140,0,U,55273,999,12951,.21866E-4,.168E-5,0
STARLINK-5236,2023-010F,2025-05-25T00:13:35.214240,14.98318927,.0003073,70.0002,32.4884,270.2795,89.8011,0,U,55274,999,12971,.12751E-3,.1428E-4,0
STARLINK-5260,2023-010G,2025-05-24T03:10:55.507296,14.99190738,.0002453,70.0003,34.6460,270.3396,89.7483,0,U,55275,999,12990,.94023E-2,.116547E-2,0
